ONEWEB-0158             
1 48054U 21025N   24248.57270779  .00000062  00000+0  13454-3 0  9992
2 48054  87.8856  89.6812 0001582  79.6218 280.5090 13.13468524168228
ONEWEB-0157             
1 48055U 21025P   24249.12977080 -.00000311  00000+0 -88722-3 0  9993
2 48055  87.8855  89.5837 0001852  82.6863 277.4476 13.13470512168249
ONEWEB-0162             
1 48056U 21025Q   24248.63620068  .00000320  00000+0  84142-3 0  9990
2 48056  87.8854  89.6772 0001681  82.1761 277.9559 13.13468851168149
ONEWEB-0155             
1 48057U 21025R   24248.58065048 -.00000145  00000+0 -43084-3 0  9993
2 48057  87.8856  89.6997 0001794  91.7033 268.4301 13.13461353168278
ONEWEB-0149             
1 48058U 21025S   24248.60128058 -.00000100  00000+0 -30853-3 0  9999
2 48058  87.8855  89.6917 0001759  77.1350 282.9976 13.13466536168087
ONEWEB-0148             
1 48059U 21025T   24248.56638069  .00000258  00000+0  67200-3 0  9991
2 48059  87.8859  89.7117 0002178  72.2594 287.8773 13.13470360168200
ONEWEB-0160             
1 48060U 21025U   24249.11548311 -.00000129  00000+0 -38901-3 0  9990
2 48060  87.8860  89.5978 0000736  74.1840 285.9370 13.13469488168223
ONEWEB-0163             
1 48061U 21025V   24248.56796669  .00000207  00000+0  53272-3 0  9993
2 48061  87.8856  89.6978 0001964  86.5592 273.5761 13.13469167168282
